ONEWEB-0593             
1 54659U 22166T   24009.59977473  .00000004  00000+0 -21474-4 0  9998
2 54659  87.9229  61.0656 0001541  94.9578 265.1732 13.21824597 54024
ONEWEB-0594             
1 54660U 22166U   24009.69440105  .00000029  00000+0  37651-4 0  9998
2 54660  87.9227  61.0420 0001977 105.6269 254.5083 13.21825320 54513
ONEWEB-0595             
1 54661U 22166V   24009.59662584  .00000022  00000+0  21484-4 0  9995
2 54661  87.9224  61.0523 0002130  95.5287 264.6090 13.21826023 54010
ONEWEB-0596             
1 54662U 22166W   24009.56981627  .00000048  00000+0  85733-4 0  9990
2 54662  87.9226  61.0602 0001578  90.1696 269.9618 13.21823939 54018
ONEWEB-0597             
1 54663U 22166X   24009.55089112  .00000069  00000+0  13666-3 0  9996
2 54663  87.9225  61.0652 0001437 102.7462 257.3832 13.21825184 54011
ONEWEB-0600             
1 54664U 22166Y   24009.68493269  .00000043  00000+0  71792-4 0  9990
2 54664  87.9219  61.0880 0001603 105.4120 254.7191 13.21827079 54478
ONEWEB-0601             
1 54665U 22166Z   24009.60135134 -.00000008  00000+0 -50417-4 0  9991
2 54665  87.9227  61.0567 0001271  93.3516 266.7763 13.21828906 54181
ONEWEB-0602             
1 54666U 22166AA  24009.56665876  .00000234  00000+0  53606-3 0  9999
2 54666  87.9227  61.0695 0001451  98.5787 261.5511 13.21824135 54028
